     2.100          NAVIGATION                              RINEX VERSION / TYPE
fic2rin                                 07/23/2012 00:06:29 PGM / RUN BY / DATE
                                                            END OF HEADER
13 12  7 22  4  0  0.0  .193073414266D-03 -.250111042988D-11  .000000000000D+00
     .340000000000D+02 -.295000000000D+02  .386480384174D-08 -.266374115985D+00
    -.160001218319D-05  .493260298390D-02  .101365149021D-04  .515364103508D+04
     .144000000000D+05 -.122934579849D-06 -.432387835603D-01 -.968575477600D-07
     .985472355119D+00  .198250000000D+03  .205124896348D+01 -.772960768347D-08
    -.562880589093D-09  .100000000000D+01  .169800000000D+04  .000000000000D+00
     .240000000000D+01  .000000000000D+00 -.111758708954D-07  .340000000000D+02
     .720600000000D+04  .400000000000D+01
14 12  7 22  4  0  0.0  .207654200494D-03  .125055521494D-11  .000000000000D+00
     .640000000000D+02 -.226562500000D+02  .410731394325D-08 -.168642387375D-01
    -.112317502499D-05  .658178573940D-02  .101886689663D-04  .515361621857D+04
     .144000000000D+05  .372529029846D-08 -.703033297873D-01  .912696123123D-07
     .978271740670D+00  .193000000000D+03 -.207022507661D+01 -.792425864861D-08
    -.646098341161D-09  .100000000000D+01  .169800000000D+04  .000000000000D+00
     .240000000000D+01  .000000000000D+00 -.931322574615D-08  .640000000000D+02
     .720600000000D+04  .400000000000D+01
15 12  7 22  4  0  0.0 -.927709043026D-04 -.454747350886D-12  .000000000000D+00
     .800000000000D+02 -.335625000000D+02  .483484424781D-08 -.479463747955D+00
    -.186823308468D-05  .445399433374D-02  .955536961555D-05  .515359518051D+04
     .144000000000D+05  .968575477600D-07 -.159874101135D+00  .149011611938D-07
     .945013812258D+00  .188781250000D+03  .448020022289D-01 -.820534178542D-08
    -.643955394756D-09  .100000000000D+01  .169800000000D+04  .000000000000D+00
     .240000000000D+01  .000000000000D+00 -.102445483208D-07  .800000000000D+02
     .720600000000D+04  .400000000000D+01
17 12  7 22  4  0  0.0  .111397821456D-03 -.318323145621D-11  .000000000000D+00
     .102000000000D+03 -.998125000000D+02  .444947105261D-08  .258008095644D+00
    -.530108809471D-05  .742129981518D-02  .899471342564D-05  .515371965408D+04
     .144000000000D+05 -.763684511185D-07  .304144542779D+01  .102445483208D-06
     .963721934887D+00  .211468750000D+03 -.229389936854D+01 -.812748139937D-08
    -.196079596074D-09  .100000000000D+01  .169800000000D+04  .000000000000D+00
     .340000000000D+01  .000000000000D+00 -.107102096081D-07  .102000000000D+03
     .720600000000D+04  .400000000000D+01
18 12  7 22  4  0  0.0  .206376891583D-03  .181898940355D-11  .000000000000D+00
     .490000000000D+02  .134062500000D+02  .585595820988D-08  .172448740321D+01
     .502914190292D-06  .135886628414D-01  .433251261711D-05  .515370438957D+04
     .144000000000D+05 -.318512320518D-06 -.117610777452D+01 -.186264514923D-06
     .928890184576D+00  .283625000000D+03 -.215881998066D+01 -.883608234401D-08
    -.207151485834D-10  .100000000000D+01  .169800000000D+04  .000000000000D+00
     .240000000000D+01  .000000000000D+00 -.107102096081D-07  .490000000000D+02
     .720600000000D+04  .400000000000D+01
19 12  7 22  4  0  0.0 -.286967027932D-03 -.363797880709D-11  .000000000000D+00
     .650000000000D+02 -.105031250000D+03  .448732977244D-08 -.568532675497D+00
    -.539422035217D-05  .852466514334D-02  .903010368347D-05  .515360553360D+04
     .144000000000D+05  .212341547012D-06  .309429229157D+01 -.242143869400D-07
     .961081448214D+00  .202468750000D+03  .206650210371D+00 -.815319675623D-08
    -.212508851847D-09  .100000000000D+01  .169800000000D+04  .000000000000D+00
     .240000000000D+01  .000000000000D+00 -.149011611938D-07  .650000000000D+02
     .720600000000D+04  .400000000000D+01
20 12  7 22  4  0  0.0  .650705769658D-04  .454747350886D-12  .000000000000D+00
     .250000000000D+02  .281250000000D+02  .573523889572D-08  .212187797687D+01
     .129640102386D-05  .491487304680D-02  .422447919846D-05  .515365775108D+04
     .144000000000D+05 -.372529029846D-07 -.122981548805D+01 -.931322574615D-07
     .929380003196D+00  .278500000000D+03  .128333243268D+01 -.865893210785D-08
     .710743891050D-10  .100000000000D+01  .169800000000D+04  .000000000000D+00
     .240000000000D+01  .000000000000D+00 -.791624188423D-08  .250000000000D+02
     .720600000000D+04  .400000000000D+01
21 12  7 22  4  0  0.0 -.238144304603D-03 -.250111042988D-11  .000000000000D+00
     .720000000000D+02  .369375000000D+02  .502413784694D-08  .284310339691D+01
     .173784792423D-05  .192737076432D-01  .115763396025D-04  .515359572411D+04
     .144000000000D+05  .111758708954D-07 -.222686661887D+01 -.232830643654D-06
     .931335102508D+00  .139312500000D+03 -.223235106510D+01 -.790425781549D-08
     .482877256633D-09  .100000000000D+01  .169800000000D+04  .000000000000D+00
     .240000000000D+01  .000000000000D+00 -.111758708954D-07  .720000000000D+02
     .720600000000D+04  .400000000000D+01
22 12  7 22  4  0  0.0  .145772006363D-03  .341060513165D-12  .000000000000D+00
     .560000000000D+02  .183437500000D+02  .601310761293D-08  .932704679099D+00
     .103749334812D-05  .629672687501D-02  .409781932831D-05  .515366765785D+04
     .144000000000D+05 -.726431608200D-07 -.117284225171D+01  .447034835815D-07
     .926616638719D+00  .285250000000D+03 -.200976408704D+01 -.898144554183D-08
    -.250010413937D-10  .100000000000D+01  .169800000000D+04  .000000000000D+00
     .240000000000D+01  .000000000000D+00 -.172294676304D-07  .560000000000D+02
     .720600000000D+04  .400000000000D+01
23 12  7 22  4  0  0.0  .182995572686D-03 -.386535248253D-11  .000000000000D+00
     .580000000000D+02 -.380937500000D+02  .448268672190D-08 -.972816371398D+00
    -.212155282497D-05  .814674363937D-02  .931695103645D-05  .515360571289D+04
     .144000000000D+05  .156462192535D-06 -.123361681778D+00 -.189989805222D-06
     .959813458117D+00  .199406250000D+03 -.297312884901D+01 -.800890503161D-08
    -.601810782120D-09  .100000000000D+01  .169800000000D+04  .000000000000D+00
     .240000000000D+01  .000000000000D+00 -.200234353542D-07  .580000000000D+02
     .720600000000D+04  .400000000000D+01
25 12  7 22  4  0  0.0  .378019176424D-04  .909494701773D-12  .000000000000D+00
     .910000000000D+02  .500000000000D+01  .461126350621D-08  .220311187360D+01
     .324100255966D-06  .181121286005D-02  .205636024475D-05  .515368107605D+04
     .144000000000D+05 -.931322574615D-08  .194862852692D+01 -.596046447754D-07
     .969122219442D+00  .343125000000D+03  .763003586688D+00 -.844678041374D-08
     .176078762959D-09  .100000000000D+01  .169800000000D+04  .000000000000D+00
     .240000000000D+01  .000000000000D+00  .512227416039D-08  .910000000000D+02
     .720600000000D+04  .400000000000D+01
26 12  7 22  4  0  0.0 -.339198857546D-03  .114823706099D-10  .000000000000D+00
     .106000000000D+03 -.158125000000D+02  .395980779903D-08 -.111352692741D+01
    -.674277544022D-06  .207974568475D-01  .100322067738D-04  .515366908836D+04
     .144000000000D+05 -.186264514923D-08 -.494824286846D-01  .543892383575D-06
     .982992416391D+00  .198187500000D+03  .120335065924D+01 -.788854287519D-08
    -.632169189527D-09  .100000000000D+01  .169800000000D+04  .000000000000D+00
     .340000000000D+01  .000000000000D+00 -.605359673500D-08  .106000000000D+03
     .720600000000D+04  .400000000000D+01
27 12  7 22  4  0  0.0  .411776825786D-03  .409272615798D-11  .000000000000D+00
     .183000000000D+03  .804062500000D+02  .383123101472D-08 -.265531744349D+00
     .422634184361D-05  .217287153937D-01  .982359051704D-05  .515370643616D+04
     .144000000000D+05 -.383704900742D-06  .873867595887D+00 -.312924385071D-06
     .982072654925D+00  .209812500000D+03 -.105733923273D+01 -.799354724904D-08
     .228223792151D-09  .100000000000D+01  .169800000000D+04  .000000000000D+00
     .340000000000D+01  .000000000000D+00 -.419095158577D-08  .183000000000D+03
     .720600000000D+04  .400000000000D+01
28 12  7 22  4  0  0.0  .167366117239D-03  .386535248253D-11  .000000000000D+00
     .360000000000D+02 -.109375000000D+01  .446304304651D-08  .871467403750D+00
    -.147148966789D-06  .179305608617D-01  .268407166004D-05  .515362815094D+04
     .144000000000D+05 -.253319740295D-06  .200821283797D+01  .186264514923D-08
     .979481222822D+00  .340250000000D+03 -.182450942077D+01 -.858857203421D-08
     .750031241812D-11  .100000000000D+01  .169800000000D+04  .000000000000D+00
     .240000000000D+01  .000000000000D+00 -.107102096081D-07  .360000000000D+02
     .720600000000D+04  .400000000000D+01
29 12  7 22  4  0  0.0  .336027238518D-03  .386535248253D-11  .000000000000D+00
     .520000000000D+02 -.992812500000D+02  .434232373236D-08  .309779033497D+01
    -.531226396561D-05  .207131099887D-02  .944547355175D-05  .515355413628D+04
     .144000000000D+05  .521540641785D-07  .305003771914D+01  .100582838058D-06
     .964279641683D+00  .195531250000D+03 -.110486700391D+01 -.798533262116D-08
    -.205365697163D-09  .100000000000D+01  .169800000000D+04  .000000000000D+00
     .240000000000D+01  .000000000000D+00 -.977888703346D-08  .520000000000D+02
     .720600000000D+04  .400000000000D+01
30 12  7 22  4  0  0.0 -.313079450279D-03 -.246700437856D-10  .000000000000D+00
     .950000000000D+02  .255937500000D+02  .484805908398D-08  .136344016190D+00
     .136531889439D-05  .112250081729D-01  .273063778877D-05  .515367817688D+04
     .144000000000D+05 -.216066837311D-06  .185717816039D+01 -.104308128357D-06
     .960297119315D+00  .328375000000D+03  .158470297820D+01 -.868571893791D-08
     .213580325049D-09  .100000000000D+01  .169800000000D+04  .000000000000D+00
     .965000000000D+01  .000000000000D+00 -.419095158577D-08  .950000000000D+02
     .720600000000D+04  .400000000000D+01
